IRIDIUM 116             
1 43072U 17083C   24145.57545137  .00000471  00000+0  16124-3 0  9996
2 43072  86.3943 276.9348 0002143  94.9507 265.1933 14.34216235336152
IRIDIUM 130             
1 43073U 17083D   24145.40420142  .00000429  00000+0  14612-3 0  9990
2 43073  86.3953 277.2085 0002074  92.8934 267.2499 14.34214486336077
IRIDIUM 151             
1 43074U 17083E   24145.79744628  .00000031  00000+0  41701-5 0  9991
2 43074  86.3944 276.8821 0002316  90.1232 270.0229 14.34217214336156
IRIDIUM 134             
1 43075U 17083F   24145.76573166  .00000013  00000+0 -25654-5 0  9996
2 43075  86.3944 276.8932 0001885  95.9357 264.2054 14.34218532336112
IRIDIUM 137             
1 43076U 17083G   24145.84818607  .00000278  00000+0  92098-4 0  9995
2 43076  86.3950 276.9369 0002506  98.7142 261.4338 14.34218365336195
IRIDIUM 141             
1 43077U 17083H   24145.84184061 -.00000048  00000+0 -24321-4 0  9997
2 43077  86.3944 276.8133 0001994  90.4933 269.6491 14.34216443336199
IRIDIUM 153             
1 43078U 17083J   24145.37540721  .00000687  00000+0  23824-3 0  9998
2 43078  86.3986 245.4594 0002228  81.8181 278.3267 14.34215880337237
IRIDIUM 131             
1 43079U 17083K   24145.82916193  .00000456  00000+0  15565-3 0  9996
2 43079  86.3951 276.9537 0002454  99.0997 261.0477 14.34216471336129
